{
  "type": "FeatureCollection",
  "features": [
    {
      "type": "Feature",
      "properties": {
        "norad_id": 33822,
        "name": "COSMOS 2251 DEB",
        "group": "cosmos-2251-debris",
        "lat": -6.921518567517903,
        "lon": -153.15596700209616,
        "alt_km": 862.0893804163752,
        "timestamp": "2025-12-04T03:47:54.934760+00:00",
        "meta_object_name": "COSMOS 2251 DEB",
        "meta_object_id": "1993-036BP",
        "meta_epoch": "2025-12-03T17:56:46.730112",
        "meta_mean_motion": 14.12999308,
        "meta_eccentricity": 0.0154027,
        "meta_inclination": 74.0696,
        "meta_ra_of_asc_node": 209.5553,
        "meta_arg_of_pericenter": 257.9488,
        "meta_mean_anomaly": 165.8405,
        "meta_ephemeris_type": 0,
        "meta_classification_type": "U",
        "meta_norad_cat_id": 33822,
        "meta_element_set_no": 999,
        "meta_rev_at_epoch": 85927,
        "meta_bstar": 0.0018691,
        "meta_mean_motion_dot": 3.877e-05,
        "meta_mean_motion_ddot": 0,
        "tle_line1": "1 33822U 93036BP  25337.74776308  .00003877  00000+0  18691-2 0  9992",
        "tle_line2": "2 33822  74.0696 209.5553 0154027 257.9488 165.8405 14.12999308859279"
      },
      "geometry": {
        "type": "Point",
        "coordinates": [
          -153.15596700209616,
          -6.921518567517903
        ]
      }
    },
    {
      "type": "Feature",
      "properties": {
        "norad_id": 33823,
        "name": "COSMOS 2251 DEB",
        "group": "cosmos-2251-debris",
        "lat": -61.86735282366353,
        "lon": 17.285028290866325,
        "alt_km": 793.798809352058,
        "timestamp": "2025-12-04T03:47:54.934770+00:00",
        "meta_object_name": "COSMOS 2251 DEB",
        "meta_object_id": "1993-036BQ",
        "meta_epoch": "2025-12-03T06:54:01.670112",
        "meta_mean_motion": 13.98912755,
        "meta_eccentricity": 0.0209252,
        "meta_inclination": 73.8087,
        "meta_ra_of_asc_node": 165.8955,
        "meta_arg_of_pericenter": 292.5793,
        "meta_mean_anomaly": 252.1811,
        "meta_ephemeris_type": 0,
        "meta_classification_type": "U",
        "meta_norad_cat_id": 33823,
        "meta_element_set_no": 999,
        "meta_rev_at_epoch": 85477,
        "meta_bstar": 0.00098413,
        "meta_mean_motion_dot": 1.686e-05,
        "meta_mean_motion_ddot": 0,
        "tle_line1": "1 33823U 93036BQ  25337.28751933  .00001686  00000+0  98413-3 0  9996",
        "tle_line2": "2 33823  73.8087 165.8955 0209252 292.5793 252.1811 13.98912755854771"
      },
      "geometry": {
        "type": "Point",
        "coordinates": [
          17.285028290866325,
          -61.86735282366353
        ]
      }
    },
    {
      "type": "Feature",
      "properties": {
        "norad_id": 33825,
        "name": "COSMOS 2251 DEB",
        "group": "cosmos-2251-debris",
        "lat": -52.727438728466225,
        "lon": -113.35183236515498,
        "alt_km": 712.554201496404,
        "timestamp": "2025-12-04T03:47:54.934781+00:00",
        "meta_object_name": "COSMOS 2251 DEB",
        "meta_object_id": "1993-036BS",
        "meta_epoch": "2025-12-03T15:51:30.966048",
        "meta_mean_motion": 14.69629372,
        "meta_eccentricity": 0.0084105,
        "meta_inclination": 73.9862,
        "meta_ra_of_asc_node": 45.4436,
        "meta_arg_of_pericenter": 14.7825,
        "meta_mean_anomaly": 110.6596,
        "meta_ephemeris_type": 0,
        "meta_classification_type": "U",
        "meta_norad_cat_id": 33825,
        "meta_element_set_no": 999,
        "meta_rev_at_epoch": 88746,
        "meta_bstar": 0.0011878,
        "meta_mean_motion_dot": 7.432e-05,
        "meta_mean_motion_ddot": 0,
        "tle_line1": "1 33825U 93036BS  25337.66077507  .00007432  00000+0  11878-2 0  9992",
        "tle_line2": "2 33825  73.9862  45.4436 0084105  14.7825 110.6596 14.69629372887469"
      },
      "geometry": {
        "type": "Point",
        "coordinates": [
          -113.35183236515498,
          -52.727438728466225
        ]
      }
    },
    {
      "type": "Feature",
      "properties": {
        "norad_id": 33826,
        "name": "COSMOS 2251 DEB",
        "group": "cosmos-2251-debris",
        "lat": -35.55907825638561,
        "lon": 54.22387391276648,
        "alt_km": 778.2962186547202,
        "timestamp": "2025-12-04T03:47:54.934791+00:00",
        "meta_object_name": "COSMOS 2251 DEB",
        "meta_object_id": "1993-036BT",
        "meta_epoch": "2025-12-03T16:57:31.078080",
        "meta_mean_motion": 14.51565138,
        "meta_eccentricity": 0.0084377,
        "meta_inclination": 74.0655,
        "meta_ra_of_asc_node": 66.8568,
        "meta_arg_of_pericenter": 114.0294,
        "meta_mean_anomaly": 10.0588,
        "meta_ephemeris_type": 0,
        "meta_classification_type": "U",
        "meta_norad_cat_id": 33826,
        "meta_element_set_no": 999,
        "meta_rev_at_epoch": 87638,
        "meta_bstar": 0.0022016,
        "meta_mean_motion_dot": 9.214e-05,
        "meta_mean_motion_ddot": 0,
        "tle_line1": "1 33826U 93036BT  25337.70660970  .00009214  00000+0  22016-2 0  9996",
        "tle_line2": "2 33826  74.0655  66.8568 0084377 114.0294  10.0588 14.51565138876383"
      },
      "geometry": {
        "type": "Point",
        "coordinates": [
          54.22387391276648,
          -35.55907825638561
        ]
      }
    },
    {
      "type": "Feature",
      "properties": {
        "norad_id": 33828,
        "name": "COSMOS 2251 DEB",
        "group": "cosmos-2251-debris",
        "lat": 73.77014989217282,
        "lon": -26.649241055531103,
        "alt_km": 746.9784238883512,
        "timestamp": "2025-12-04T03:47:54.934802+00:00",
        "meta_object_name": "COSMOS 2251 DEB",
        "meta_object_id": "1993-036BV",
        "meta_epoch": "2025-12-03T21:02:45.488832",
        "meta_mean_motion": 14.44281597,
        "meta_eccentricity": 0.0029345,
        "meta_inclination": 74.0475,
        "meta_ra_of_asc_node": 254.5694,
        "meta_arg_of_pericenter": 328.8871,
        "meta_mean_anomaly": 95.5387,
        "meta_ephemeris_type": 0,
        "meta_classification_type": "U",
        "meta_norad_cat_id": 33828,
        "meta_element_set_no": 999,
        "meta_rev_at_epoch": 88185,
        "meta_bstar": 0.00085681,
        "meta_mean_motion_dot": 2.935e-05,
        "meta_mean_motion_ddot": 0,
        "tle_line1": "1 33828U 93036BV  25337.87691538  .00002935  00000+0  85681-3 0  9991",
        "tle_line2": "2 33828  74.0475 254.5694 0029345 328.8871  95.5387 14.44281597881850"
      },
      "geometry": {
        "type": "Point",
        "coordinates": [
          -26.649241055531103,
          73.77014989217282
        ]
      }
    },
    {
      "type": "Feature",
      "properties": {
        "norad_id": 33830,
        "name": "COSMOS 2251 DEB",
        "group": "cosmos-2251-debris",
        "lat": 36.93008262532358,
        "lon": -100.38522840082054,
        "alt_km": 611.0345048110548,
        "timestamp": "2025-12-04T03:47:54.934812+00:00",
        "meta_object_name": "COSMOS 2251 DEB",
        "meta_object_id": "1993-036BX",
        "meta_epoch": "2025-12-03T19:46:53.878080",
        "meta_mean_motion": 14.76701064,
        "meta_eccentricity": 0.0042165,
        "meta_inclination": 74.0333,
        "meta_ra_of_asc_node": 247.8418,
        "meta_arg_of_pericenter": 9.793,
        "meta_mean_anomaly": 53.6736,
        "meta_ephemeris_type": 0,
        "meta_classification_type": "U",
        "meta_norad_cat_id": 33830,
        "meta_element_set_no": 999,
        "meta_rev_at_epoch": 89340,
        "meta_bstar": 0.0015649,
        "meta_mean_motion_dot": 0.00011099,
        "meta_mean_motion_ddot": 0,
        "tle_line1": "1 33830U 93036BX  25337.82423470  .00011099  00000+0  15649-2 0  9994",
        "tle_line2": "2 33830  74.0333 247.8418 0042165   9.7930  53.6736 14.76701064893409"
      },
      "geometry": {
        "type": "Point",
        "coordinates": [
          -100.38522840082054,
          36.93008262532358
        ]
      }
    },
    {
      "type": "Feature",
      "properties": {
        "norad_id": 33832,
        "name": "COSMOS 2251 DEB",
        "group": "cosmos-2251-debris",
        "lat": -47.62890626015774,
        "lon": 64.610458541967,
        "alt_km": 682.2779256671693,
        "timestamp": "2025-12-04T03:47:54.934822+00:00",
        "meta_object_name": "COSMOS 2251 DEB",
        "meta_object_id": "1993-036BZ",
        "meta_epoch": "2025-12-03T11:08:10.798368",
        "meta_mean_motion": 14.60447623,
        "meta_eccentricity": 0.0025654,
        "meta_inclination": 74.0553,
        "meta_ra_of_asc_node": 227.6694,
        "meta_arg_of_pericenter": 260.5825,
        "meta_mean_anomaly": 281.0224,
        "meta_ephemeris_type": 0,
        "meta_classification_type": "U",
        "meta_norad_cat_id": 33832,
        "meta_element_set_no": 999,
        "meta_rev_at_epoch": 88289,
        "meta_bstar": 0.0019398,
        "meta_mean_motion_dot": 9.427e-05,
        "meta_mean_motion_ddot": 0,
        "tle_line1": "1 33832U 93036BZ  25337.46401387  .00009427  00000+0  19398-2 0  9996",
        "tle_line2": "2 33832  74.0553 227.6694 0025654 260.5825 281.0224 14.60447623882892"
      },
      "geometry": {
        "type": "Point",
        "coordinates": [
          64.610458541967,
          -47.62890626015774
        ]
      }
    }
  ]
}